[{"OBJECT_NAME":"STARLINK-5604","OBJECT_ID":"2023-014AF","EPOCH":"2026-03-09T07:48:09.389088","MEAN_MOTION":14.98329544,"ECCENTRICITY":0.00029176,"INCLINATION":70.0002,"RA_OF_ASC_NODE":45.4011,"ARG_OF_PERICENTER":268.8937,"MEAN_ANOMALY":91.1887,"EPHEMERIS_TYPE":0,"CLASSIFICATION_TYPE":"U","NORAD_CAT_ID":55420,"ELEMENT_SET_NO":999,"REV_AT_EPOCH":17249,"BSTAR":3.1325975e-5,"MEAN_MOTION_DOT":2.81e-6,"MEAN_MOTION_DDOT":0},{"OBJECT_NAME":"FENGYUN 1C DEB","OBJECT_ID":"1999-025BTY","EPOCH":"2026-03-09T14:49:03.533664","MEAN_MOTION":15.05418076,"ECCENTRICITY":0.0035944,"INCLINATION":98.8793,"RA_OF_ASC_NODE":298.6402,"ARG_OF_PERICENTER":319.4464,"MEAN_ANOMALY":105.3063,"EPHEMERIS_TYPE":0,"CLASSIFICATION_TYPE":"U","NORAD_CAT_ID":31436,"ELEMENT_SET_NO":999,"REV_AT_EPOCH":98178,"BSTAR":0.0045436,"MEAN_MOTION_DOT":0.00066638,"MEAN_MOTION_DDOT":0}]
